[{"OBJECT_NAME":"THORAD DELTA 1 DEB","OBJECT_TYPE":"DEBRIS","INTLDES":"74089EB","TLE_LINE1":"1 09984U 74089EB  16197.90465172 -.00000037  00000-0  50813-4 0  9998","TLE_LINE2":"2 09984 101.8193 162.9740 0095632  26.4046 355.0222 12.40341094888495"},{"OBJECT_NAME":"THORAD DELTA 1 DEB","OBJECT_TYPE":"DEBRIS","INTLDES":"74089EC","TLE_LINE1":"1 09985U 74089EC  16199.44335779  .00000000  00000-0  28615-3 0  9992","TLE_LINE2":"2 09985 101.4904 180.1933 0048908 111.6153  40.4288 12.48736904900531"},{"OBJECT_NAME":"THORAD DELTA 1 DEB","OBJECT_TYPE":"DEBRIS","INTLDES":"74089ED","TLE_LINE1":"1 09986U 74089ED  16199.68868084 -.00003556  00000-0 -45373-2 0  9999","TLE_LINE2":"2 09986 103.3820 114.7242 0499754  10.7807 350.3556 13.19739635950876"},{"OBJECT_NAME":"THORAD DELTA 1 DEB","OBJECT_TYPE":"DEBRIS","INTLDES":"74089EE","TLE_LINE1":"1 09987U 74089EE  16200.19280532  .00000100  00000-0  92877-3 0  9997","TLE_LINE2":"2 09987 101.4667  77.9214 0093097 317.4446 165.2472 12.49883127896901"},{"OBJECT_NAME":"THORAD DELTA 1 DEB","OBJECT_TYPE":"DEBRIS","INTLDES":"74089EF","TLE_LINE1":"1  9988U 74089EF  16199.11157999 +.00002739 +00000-0 +21794-2 0  9996","TLE_LINE2":"2  9988 103.0603 264.3835 0258624 241.0734 116.4241 13.78161249003619"},{"OBJECT_NAME":"THORAD DELTA 1 DEB","OBJECT_TYPE":"DEBRIS","INTLDES":"74089EG","TLE_LINE1":"1  9989U 74089EG  16199.83831581 -.00000211 +00000-0 -11096-2 0  9991","TLE_LINE2":"2  9989 102.9407 159.5520 0193640 007.5277 047.7055 12.41401748851147"},{"OBJECT_NAME":"SL-8 DEB","OBJECT_TYPE":"DEBRIS","INTLDES":"77036C","TLE_LINE1":"1 10013U 77036C   16200.73055075 -.00000072  00000-0 -66283-4 0  9999","TLE_LINE2":"2 10013  65.8689 315.5671 0703412  11.5094 107.5742 12.30709516760018"},{"OBJECT_NAME":"THORAD AGENA D DEB","OBJECT_TYPE":"DEBRIS","INTLDES":"70025NQ","TLE_LINE1":"1 10136U 70025NQ  16199.96927265 -.00000018 +00000-0 +42647-4 0  9994","TLE_LINE2":"2 10136 099.9429 104.8961 0000519 324.5951 097.8237 13.51567017281258"},{"OBJECT_NAME":"DELTA 1 DEB","OBJECT_TYPE":"DEBRIS","INTLDES":"77065F","TLE_LINE1":"1 10177U 77065F   16200.17976877  .00000690  00000-0  10117-3 0  9990","TLE_LINE2":"2 10177  28.2268 234.9688 0569128 124.9511 240.5849 13.94183117789093"},{"OBJECT_NAME":"DELTA 1 DEB","OBJECT_TYPE":"DEBRIS","INTLDES":"77065G","TLE_LINE1":"1 10178U 77065G   16199.47950475  .00000106  00000-0  18912-3 0  9990","TLE_LINE2":"2 10178  28.7224 252.3293 0926495  10.4989  99.5032 12.05260924572739"},{"OBJECT_NAME":"DELTA 1 DEB","OBJECT_TYPE":"DEBRIS","INTLDES":"77065M","TLE_LINE1":"1 10183U 77065M   16199.44240320 +.00001732 +00000-0 +48664-3 0  9997","TLE_LINE2":"2 10183 029.2124 238.6119 0558216 275.8236 077.8993 13.78107280908507"},{"OBJECT_NAME":"DELTA 1 DEB","OBJECT_TYPE":"DEBRIS","INTLDES":"77065N","TLE_LINE1":"1 10184U 77065N   16199.63739312 +.00000419 +00000-0 +81432-4 0  9995","TLE_LINE2":"2 10184 029.0762 293.2200 0787318 131.9314 235.1121 13.41982909879696"},{"OBJECT_NAME":"DELTA 1 DEB","OBJECT_TYPE":"DEBRIS","INTLDES":"77065S","TLE_LINE1":"1 10188U 77065S   16199.26717785 +.00000243 +00000-0 +31340-4 0  9996","TLE_LINE2":"2 10188 029.0687 160.5145 0706033 228.5938 125.1824 13.55821110898577"},{"OBJECT_NAME":"DELTA 1 DEB","OBJECT_TYPE":"DEBRIS","INTLDES":"77065AB","TLE_LINE1":"1 10198U 77065AB  16199.07682536 +.00000772 +00000-0 +54274-3 0  9998","TLE_LINE2":"2 10198 029.5709 096.4706 0658459 208.3770 147.9372 13.20292447849681"},{"OBJECT_NAME":"DELTA 1 DEB","OBJECT_TYPE":"DEBRIS","INTLDES":"77065AE","TLE_LINE1":"1 10201U 77065AE  16200.74038595  .00000300  00000-0  40646-4 0  9996","TLE_LINE2":"2 10201  29.0906   2.3365 0710470  14.9065 347.1345 13.64024121912772"},{"OBJECT_NAME":"DELTA 1 DEB","OBJECT_TYPE":"DEBRIS","INTLDES":"77065AH","TLE_LINE1":"1 10204U 77065AH  16198.97687055  .00001793  00000-0  27923-3 0  9990","TLE_LINE2":"2 10204  28.8397  60.9533 0317381 214.2092 143.7658 14.40283076950176"},{"OBJECT_NAME":"DELTA 1 DEB","OBJECT_TYPE":"DEBRIS","INTLDES":"77065AK","TLE_LINE1":"1 10206U 77065AK  16199.33331146 +.00000070 +00000-0 -13527-5 0  9995","TLE_LINE2":"2 10206 029.2164 185.8177 0600132 149.9576 213.6847 13.30305814830825"},{"OBJECT_NAME":"DELTA 1 DEB","OBJECT_TYPE":"DEBRIS","INTLDES":"77065AL","TLE_LINE1":"1 10207U 77065AL  16199.95312545  .00000533  00000-0  90582-3 0  9993","TLE_LINE2":"2 10207  29.0910  91.1951 0696921 201.9364 154.9893 12.67782318793651"},{"OBJECT_NAME":"DELTA 1 DEB","OBJECT_TYPE":"DEBRIS","INTLDES":"77065AM","TLE_LINE1":"1 10208U 77065AM  16199.47378755  .00003020  00000-0  53886-3 0  9996","TLE_LINE2":"2 10208  28.9367 285.4966 0479104 237.8441 117.4787 14.09927434930002"},{"OBJECT_NAME":"DELTA 1 DEB","OBJECT_TYPE":"DEBRIS","INTLDES":"77065AQ","TLE_LINE1":"1 10211U 77065AQ  16199.46985225 -.00000377 +00000-0 -89596-3 0  9996","TLE_LINE2":"2 10211 029.4686 343.5014 0681634 103.2824 264.4600 12.65991865651062"},{"OBJECT_NAME":"DELTA 1 DEB","OBJECT_TYPE":"DEBRIS","INTLDES":"77065AT","TLE_LINE1":"1 10214U 77065AT  16198.99840316  .00000626  00000-0  25274-3 0  9995","TLE_LINE2":"2 10214  28.8695  32.6436 0587384  15.6592 346.1337 13.55221003878007"},{"OBJECT_NAME":"DELTA 1 DEB","OBJECT_TYPE":"DEBRIS","INTLDES":"77065AX","TLE_LINE1":"1 10220U 77065AX  16199.22494542 +.00002791 +00000-0 +11940-2 0  9994","TLE_LINE2":"2 10220 029.1388 132.8116 0494636 077.1136 288.4199 13.72934357894025"},{"OBJECT_NAME":"DELTA 1 DEB","OBJECT_TYPE":"DEBRIS","INTLDES":"77065AY","TLE_LINE1":"1 10221U 77065AY  16199.44501102 +.00001085 +00000-0 +13296-3 0  9992","TLE_LINE2":"2 10221 029.0529 302.6949 0451318 327.3575 029.9849 14.24950284951872"},{"OBJECT_NAME":"DELTA 1 DEB","OBJECT_TYPE":"DEBRIS","INTLDES":"77065BE","TLE_LINE1":"1 10227U 77065BE  16199.49419541  .00000128  00000-0  17097-4 0  9999","TLE_LINE2":"2 10227  28.9508   5.9548 0716782  34.3809 330.1081 13.42463872886924"},{"OBJECT_NAME":"DELTA 1 DEB","OBJECT_TYPE":"DEBRIS","INTLDES":"77065BG","TLE_LINE1":"1 10229U 77065BG  16197.77482367 +.00006717 +00000-0 +17460-2 0  9998","TLE_LINE2":"2 10229 028.8008 014.2113 0253111 143.6285 218.1777 14.30727287164427"},{"OBJECT_NAME":"DELTA 1 DEB","OBJECT_TYPE":"DEBRIS","INTLDES":"77065BH","TLE_LINE1":"1 10230U 77065BH  16199.33275478 +.00003385 +00000-0 +33563-3 0  9998","TLE_LINE2":"2 10230 029.0179 210.9777 0225765 221.6777 136.6409 14.71884375985300"},{"OBJECT_NAME":"DELTA 1 DEB","OBJECT_TYPE":"DEBRIS","INTLDES":"77065BM","TLE_LINE1":"1 10234U 77065BM  16199.92033347 +.00003419 +00000-0 +38918-3 0  9991","TLE_LINE2":"2 10234 028.9539 093.8231 0448748 056.1864 308.0619 14.31414297957508"},{"OBJECT_NAME":"DELTA 1 DEB","OBJECT_TYPE":"DEBRIS","INTLDES":"77065BN","TLE_LINE1":"1 10235U 77065BN  16200.11794095  .00014655  00000-0  48323-3 0  9995","TLE_LINE2":"2 10235  28.8446 121.3311 0135512 133.4860 227.7096 15.21391566  1046"},{"OBJECT_NAME":"DELTA 1 DEB","OBJECT_TYPE":"DEBRIS","INTLDES":"77065BR","TLE_LINE1":"1 10240U 77065BR  16199.43659460  .00000890  00000-0  63670-3 0  9997","TLE_LINE2":"2 10240  29.3950 321.1844 0718668 286.6994  65.5927 13.10021969596488"},{"OBJECT_NAME":"DELTA 1 DEB","OBJECT_TYPE":"DEBRIS","INTLDES":"77065CB","TLE_LINE1":"1 10250U 77065CB  16197.89670110 +.00001290 +00000-0 +26294-3 0  9997","TLE_LINE2":"2 10250 029.0766 042.3202 0593399 142.8219 221.4985 13.82949964804736"},{"OBJECT_NAME":"DELTA 1 DEB","OBJECT_TYPE":"DEBRIS","INTLDES":"77065CC","TLE_LINE1":"1 10251U 77065CC  16200.08503918  .00000821  00000-0  10400-3 0  9996","TLE_LINE2":"2 10251  28.9729 118.3813 0724283 128.3304 238.4637 13.71852500918294"},{"OBJECT_NAME":"DELTA 1 DEB","OBJECT_TYPE":"DEBRIS","INTLDES":"77065CD","TLE_LINE1":"1 10252U 77065CD  16200.35298030  .00000325  00000-0  10647-3 0  9995","TLE_LINE2":"2 10252  28.8407 256.4173 0785294 163.3582 199.4343 13.20499614860323"},{"OBJECT_NAME":"DELTA 1 DEB","OBJECT_TYPE":"DEBRIS","INTLDES":"77065CN","TLE_LINE1":"1 10261U 77065CN  16199.46141188  .00002954  00000-0  33671-3 0  9997","TLE_LINE2":"2 10261  29.0184 245.3865 0363993 206.0425 152.1422 14.45524357960744"},{"OBJECT_NAME":"DELTA 1 DEB","OBJECT_TYPE":"DEBRIS","INTLDES":"77065CP","TLE_LINE1":"1 10262U 77065CP  16200.44913937  .00000491  00000-0  88382-4 0  9992","TLE_LINE2":"2 10262  29.0663 285.3518 0684681 323.0780  32.4480 13.64305773909779"},{"OBJECT_NAME":"DELTA 1 DEB","OBJECT_TYPE":"DEBRIS","INTLDES":"77065DB","TLE_LINE1":"1 10305U 77065DB  16200.38893855  .00004936  00000-0  11466-2 0  9994","TLE_LINE2":"2 10305  29.0538 207.5519 0220449 288.4064  69.2669 14.39296534918338"},{"OBJECT_NAME":"DELTA 1 DEB","OBJECT_TYPE":"DEBRIS","INTLDES":"77065DC","TLE_LINE1":"1 10306U 77065DC  16199.25343868 +.00000346 +00000-0 +66421-4 0  9996","TLE_LINE2":"2 10306 029.1027 177.2379 0706937 133.0072 233.1964 13.55021156898278"},{"OBJECT_NAME":"DELTA 1 DEB","OBJECT_TYPE":"DEBRIS","INTLDES":"77065DL","TLE_LINE1":"1 10314U 77065DL  16198.11095686  .00000209  00000-0  39085-4 0  9995","TLE_LINE2":"2 10314  28.7872  78.0531 0697504 287.7644 238.6872 13.43437435871074"},{"OBJECT_NAME":"DELTA 1 DEB","OBJECT_TYPE":"DEBRIS","INTLDES":"77065DM","TLE_LINE1":"1 10338U 77065DM  16199.35593491  .00001265  00000-0  24377-3 0  9995","TLE_LINE2":"2 10338  29.0613 178.5349 0673938   6.6992 354.2086 13.70208248914921"},{"OBJECT_NAME":"DELTA 1 DEB","OBJECT_TYPE":"DEBRIS","INTLDES":"77065DV","TLE_LINE1":"1 10346U 77065DV  16199.76416511 +.00000491 +00000-0 +20053-3 0  9993","TLE_LINE2":"2 10346 029.2217 351.1843 0725836 113.6251 254.2176 13.29506911853778"},{"OBJECT_NAME":"THORAD DELTA 1 DEB","OBJECT_TYPE":"DEBRIS","INTLDES":"74089EH","TLE_LINE1":"1 10392U 74089EH  16199.43736572 -.00000037 +00000-0 +47247-4 0  9995","TLE_LINE2":"2 10392 101.6937 265.8646 0050317 224.8676 267.2960 12.60067282918602"},{"OBJECT_NAME":"THORAD DELTA 1 DEB","OBJECT_TYPE":"DEBRIS","INTLDES":"74089EJ","TLE_LINE1":"1 10393U 74089EJ  16199.42305603 -.00000014 +00000-0 +22205-3 0  9993","TLE_LINE2":"2 10393 101.5232 359.5850 0158831 113.6568 273.8172 12.23927140867027"}]